{
  "norad_id": 65508,
  "name": "STARLINK-35119",
  "history": [
    {
      "epoch": "2026-03-28T16:26:55.175712",
      "apogee_km": 476.2862726905023,
      "perigee_km": 474.2823323016519,
      "latitude_deg": -14.70675791240677,
      "longitude_deg": 76.5946396801155,
      "semi_major_axis_km": 6853.421302496076,
      "eccentricity": 0.0001462,
      "inclination_deg": 53.158,
      "raan_deg": 183.1024,
      "arg_perigee_deg": 66.5216,
      "mean_anomaly_deg": 293.5938,
      "mean_motion_rev_day": 15.30176813
    }
  ]
}